[{"OBJECT_NAME":"STARLINK-4480","OBJECT_ID":"2022-097AE","EPOCH":"2026-03-09T09:52:37.352352","MEAN_MOTION":15.08837317,"ECCENTRICITY":0.00013366,"INCLINATION":53.2167,"RA_OF_ASC_NODE":115.3182,"ARG_OF_PERICENTER":89.8624,"MEAN_ANOMALY":270.2522,"EPHEMERIS_TYPE":0,"CLASSIFICATION_TYPE":"U","NORAD_CAT_ID":53416,"ELEMENT_SET_NO":999,"REV_AT_EPOCH":19858,"BSTAR":-2.9827175e-5,"MEAN_MOTION_DOT":-7.63e-6,"MEAN_MOTION_DDOT":0},{"OBJECT_NAME":"CZ-4B DEB","OBJECT_ID":"2008-053J","EPOCH":"2026-03-09T11:59:22.469568","MEAN_MOTION":15.1637526,"ECCENTRICITY":0.00601661,"INCLINATION":97.7872,"RA_OF_ASC_NODE":170.5072,"ARG_OF_PERICENTER":304.792,"MEAN_ANOMALY":54.7659,"EPHEMERIS_TYPE":0,"CLASSIFICATION_TYPE":"U","NORAD_CAT_ID":35573,"ELEMENT_SET_NO":999,"REV_AT_EPOCH":91868,"BSTAR":0.0017688276,"MEAN_MOTION_DOT":0.00036031,"MEAN_MOTION_DDOT":0}]
